[{"OBJECT_NAME":"YUNYAO-1 18","OBJECT_ID":"2024-009A","EPOCH":"2026-03-09T23:31:57.952704","MEAN_MOTION":15.20880734,"ECCENTRICITY":0.00048808,"INCLINATION":49.9885,"RA_OF_ASC_NODE":282.3937,"ARG_OF_PERICENTER":244.6654,"MEAN_ANOMALY":115.3794,"EPHEMERIS_TYPE":0,"CLASSIFICATION_TYPE":"U","NORAD_CAT_ID":58758,"ELEMENT_SET_NO":999,"REV_AT_EPOCH":11973,"BSTAR":0.00063747175,"MEAN_MOTION_DOT":0.00014001,"MEAN_MOTION_DDOT":0},{"OBJECT_NAME":"USA 40 R\/B DEB","OBJECT_ID":"1989-061N","EPOCH":"2026-03-09T09:49:33.093120","MEAN_MOTION":11.84886734,"ECCENTRICITY":0.16014715,"INCLINATION":56.9516,"RA_OF_ASC_NODE":217.5526,"ARG_OF_PERICENTER":307.4414,"MEAN_ANOMALY":39.0995,"EPHEMERIS_TYPE":0,"CLASSIFICATION_TYPE":"U","NORAD_CAT_ID":23159,"ELEMENT_SET_NO":999,"REV_AT_EPOCH":24716,"BSTAR":0.0075061487,"MEAN_MOTION_DOT":0.00032695,"MEAN_MOTION_DDOT":0}]
